NORAD_CAT_ID,OBJECT_NAME,OBJECT_TYPE,EPOCH,MEAN_MOTION,ECCENTRICITY,INCLINATION,RA_OF_ASC_NODE,ARG_OF_PERICENTER,MEAN_ANOMALY,BSTAR,MEAN_MOTION_DOT,MEAN_MOTION_DDOT,TLE_LINE0,TLE_LINE1,TLE_LINE2,SEMIMAJOR_AXIS,PERIOD,APOGEE,PERIGEE,DECAYED
53022.0,STARLINK-4216,PAYLOAD,2023-08-31 00:21:28,15.08835837,0.0001332,53.2165,261.6793,92.2671,267.8474,3.56e-05,2.79e-06,0.0,0 STARLINK-4216,1 53022U 22076AN  23243.01490885  .00000279  00000-0  35600-4 0  9994,2 53022  53.2165 261.6793 0001332  92.2671 267.8474 15.08835837 63843,6917.893,95.438,540.68,538.837,0.0
53022.0,STARLINK-4216,PAYLOAD,2023-09-01 01:47:38,15.08828399,0.0001016,53.2171,256.9242,60.4819,299.6274,0.00012834,1.755e-05,0.0,0 STARLINK-4216,1 53022U 22076AN  23244.07475330  .00001755  00000-0  12834-3 0  9992,2 53022  53.2171 256.9242 0001016  60.4819 299.6274 15.08828399 64472,6917.916,95.438,540.484,539.078,0.0
53022.0,STARLINK-4216,PAYLOAD,2023-09-01 11:19:54,15.08864311,9.19e-05,53.2168,255.1385,93.4392,266.6705,0.00054213,8.356e-05,0.0,0 STARLINK-4216,1 53022U 22076AN  23244.47216017  .00008356  00000-0  54213-3 0  9992,2 53022  53.2168 255.1385 0000919  93.4392 266.6705 15.08864311 64534,6917.806,95.436,540.307,539.035,0.0
53022.0,STARLINK-4216,PAYLOAD,2023-09-01 17:41:31,15.08818207,0.0001223,53.2165,253.948,97.8691,262.244,-3.4312e-05,-8.33e-06,0.0,0 STARLINK-4216,1 53022U 22076AN  23244.73716534 -.00000833  00000-0 -34312-4 0  9993,2 53022  53.2165 253.9480 0001223  97.8691 262.2440 15.08818207 64577,6917.947,95.439,540.658,538.966,0.0
53022.0,STARLINK-4216,PAYLOAD,2023-09-02 01:38:25,15.08838381,0.0001384,53.2175,252.4606,93.118,266.997,3.1426e-05,2.12e-06,0.0,0 STARLINK-4216,1 53022U 22076AN  23245.06835310  .00000212  00000-0  31426-4 0  9996,2 53022  53.2175 252.4606 0001384  93.1180 266.9970 15.08838381 64622,6917.885,95.438,540.708,538.793,0.0
53022.0,STARLINK-4216,PAYLOAD,2023-09-02 17:32:16,15.08840559,0.0001348,53.2169,249.4866,88.6161,271.4986,4.0113e-05,3.51e-06,0.0,0 STARLINK-4216,1 53022U 22076AN  23245.73075190  .00000351  00000-0  40113-4 0  9999,2 53022  53.2169 249.4866 0001348  88.6161 271.4986 15.08840559 64254,6917.879,95.438,540.676,538.811,0.0
53022.0,STARLINK-4216,PAYLOAD,2023-09-03 09:26:07,15.08845004,0.0001402,53.216,246.5128,89.6968,270.4185,7.446e-05,8.97e-06,0.0,0 STARLINK-4216,1 53022U 22076AN  23246.39314808  .00000897  00000-0  74460-4 0  9991,2 53022  53.2160 246.5128 0001402  89.6968 270.4185 15.08845004 64824,6917.865,95.437,540.7,538.76,0.0
53022.0,STARLINK-4216,PAYLOAD,2023-09-03 23:44:36,15.08837027,0.0001642,53.2171,243.8368,89.7239,270.3942,1.9931e-05,2.9e-07,0.0,0 STARLINK-4216,1 53022U 22076AN  23246.98931578  .00000029  00000-0  19931-4 0  9994,2 53022  53.2171 243.8368 0001642  89.7239 270.3942 15.08837027 64916,6917.889,95.438,540.89,538.619,0.0
53022.0,STARLINK-4216,PAYLOAD,2023-09-04 09:16:55,15.0883734,0.0001505,53.216,242.0522,91.4623,268.6542,1.9828e-05,2.8e-07,0.0,0 STARLINK-4216,1 53022U 22076AN  23247.38675616  .00000028  00000-0  19828-4 0  9991,2 53022  53.2160 242.0522 0001505  91.4623 268.6542 15.08837340 64501,6917.889,95.438,540.795,538.712,0.0
53022.0,STARLINK-4216,PAYLOAD,2023-09-05 10:43:05,15.08843495,0.0001444,53.2163,237.2945,90.4879,269.6279,-1.9935e-06,-3.2e-06,0.0,0 STARLINK-4216,1 53022U 22076AN  23248.44659410 -.00000320  00000-0 -19935-5 0  9990,2 53022  53.2163 237.2945 0001444  90.4879 269.6279 15.08843495 65139,6917.87,95.437,540.734,538.736,0.0
53022.0,STARLINK-4216,PAYLOAD,2023-09-06 10:33:52,15.08843433,0.0001452,53.2163,232.8339,93.4165,266.6994,0.00010092,1.319e-05,0.0,0 STARLINK-4216,1 53022U 22076AN  23249.44019095  .00001319  00000-0  10092-3 0  9990,2 53022  53.2163 232.8339 0001452  93.4165 266.6994 15.08843433 64814,6917.87,95.437,540.739,538.73,0.0
53022.0,STARLINK-4216,PAYLOAD,2023-09-07 08:49:16,15.08837647,0.000149,53.2165,228.6703,95.3508,264.7655,1.9529e-05,2.3e-07,0.0,0 STARLINK-4216,1 53022U 22076AN  23250.36755781  .00000023  00000-0  19529-4 0  9998,2 53022  53.2165 228.6703 0001490  95.3508 264.7655 15.08837647 65429,6917.888,95.438,540.783,538.722,0.0
53022.0,STARLINK-4216,PAYLOAD,2023-09-08 08:40:03,15.08844027,0.0001329,53.2166,224.2101,94.0724,266.042,-2.8548e-05,-7.42e-06,0.0,0 STARLINK-4216,1 53022U 22076AN  23251.36115726 -.00000742  00000-0 -28548-4 0  9999,2 53022  53.2166 224.2101 0001329  94.0724 266.0420 15.08844027 65101,6917.868,95.437,540.652,538.814,0.0
53022.0,STARLINK-4216,PAYLOAD,2023-09-08 15:01:36,15.08841174,0.0001471,53.2163,223.0205,87.9186,272.1975,-5.2728e-05,-1.127e-05,0.0,0 STARLINK-4216,1 53022U 22076AN  23251.62611953 -.00001127  00000-0 -52728-4 0  9996,2 53022  53.2163 223.0205 0001471  87.9186 272.1975 15.08841174 65610,6917.877,95.437,540.759,538.724,0.0
53022.0,STARLINK-4216,PAYLOAD,2023-09-09 02:09:18,15.08804341,0.0001535,53.2165,220.9389,88.5161,271.6007,0.00047067,7.203e-05,0.0,0 STARLINK-4216,1 53022U 22076AN  23252.08980258  .00007203  00000-0  47067-3 0  9992,2 53022  53.2165 220.9389 0001535  88.5161 271.6007 15.08804341 65684,6917.989,95.44,540.916,538.792,0.0
53022.0,STARLINK-4216,PAYLOAD,2023-09-09 06:55:27,15.08843868,0.0001313,53.2167,220.0469,94.0905,266.0237,3.2798e-05,2.34e-06,0.0,0 STARLINK-4216,1 53022U 22076AN  23252.28851767  .00000234  00000-0  32798-4 0  9999,2 53022  53.2167 220.0469 0001313  94.0905 266.0237 15.08843868 65712,6917.869,95.437,540.642,538.825,0.0
53022.0,STARLINK-4216,PAYLOAD,2023-09-09 14:52:23,15.08834695,0.0001377,53.2169,218.5602,88.2693,271.8457,0.00014961,2.094e-05,0.0,0 STARLINK-4216,1 53022U 22076AN  23252.61972116  .00002094  00000-0  14961-3 0  9995,2 53022  53.2169 218.5602 0001377  88.2693 271.8457 15.08834695 65765,6917.897,95.438,540.714,538.809,0.0
53022.0,STARLINK-4216,PAYLOAD,2023-09-10 06:46:15,15.08839605,0.0001486,53.2178,215.5873,87.101,273.0152,5.2272e-05,5.44e-06,0.0,0 STARLINK-4216,1 53022U 22076AN  23253.28212302  .00000544  00000-0  52272-4 0  9999,2 53022  53.2178 215.5873 0001486  87.1010 273.0152 15.08839605 65395,6917.882,95.438,540.775,538.719,0.0
53022.0,STARLINK-4216,PAYLOAD,2023-09-11 03:26:16,15.0883865,0.0001769,53.2193,211.7197,82.4077,277.7116,4.6961e-05,4.59e-06,0.0,0 STARLINK-4216,1 53022U 22076AN  23254.14324605  .00000459  00000-0  46961-4 0  9998,2 53022  53.2193 211.7197 0001769  82.4077 277.7116 15.08838650 65990,6917.885,95.438,540.973,538.526,0.0
53022.0,STARLINK-4216,PAYLOAD,2023-09-11 06:37:02,15.08842876,0.0001507,53.2178,211.1258,83.2313,276.885,4.7962e-05,4.75e-06,0.0,0 STARLINK-4216,1 53022U 22076AN  23254.27572290  .00000475  00000-0  47962-4 0  9997,2 53022  53.2178 211.1258 0001507  83.2313 276.8850 15.08842876 65548,6917.872,95.437,540.779,538.694,0.0
53022.0,STARLINK-4216,PAYLOAD,2023-09-12 06:27:48,15.08852744,0.0001549,53.2173,206.665,100.2863,259.8303,5.0745e-05,5.2e-06,0.0,0 STARLINK-4216,1 53022U 22076AN  23255.26931483  .00000520  00000-0  50745-4 0  9994,2 53022  53.2173 206.6650 0001549 100.2863 259.8303 15.08852744 66162,6917.841,95.437,540.778,538.635,0.0
53022.0,STARLINK-4216,PAYLOAD,2023-09-13 03:07:50,15.08845063,0.0001496,53.2176,202.7995,92.2361,267.8803,6.0141e-05,6.69e-06,0.0,0 STARLINK-4216,1 53022U 22076AN  23256.13044040  .00000669  00000-0  60141-4 0  9990,2 53022  53.2176 202.7995 0001496  92.2361 267.8803 15.08845063 66292,6917.865,95.437,540.765,538.695,0.0
53022.0,STARLINK-4216,PAYLOAD,2023-09-13 06:18:36,15.0884781,0.0001459,53.2177,202.2028,97.1015,263.0143,8.507e-05,1.066e-05,0.0,0 STARLINK-4216,1 53022U 22076AN  23256.26291765  .00001066  00000-0  85070-4 0  9992,2 53022  53.2177 202.2028 0001459  97.1015 263.0143 15.08847810 65841,6917.857,95.437,540.731,538.712,0.0
53022.0,STARLINK-4216,PAYLOAD,2023-09-14 02:58:37,15.0884125,0.0001372,53.2176,198.3345,108.2233,251.8909,-4.1448e-05,-9.48e-06,0.0,0 STARLINK-4216,1 53022U 22076AN  23257.12404364 -.00000948  00000-0 -41448-4 0  9990,2 53022  53.2176 198.3345 0001372 108.2233 251.8909 15.08841250 66441,6917.877,95.437,540.691,538.792,0.0
53022.0,STARLINK-4216,PAYLOAD,2023-09-14 04:34:00,15.08839926,0.0001606,53.2181,198.0421,90.7181,269.3995,1.0458e-06,-2.71e-06,0.0,0 STARLINK-4216,1 53022U 22076AN  23257.19028567 -.00000271  00000-0  10458-5 0  9990,2 53022  53.2181 198.0421 0001606  90.7181 269.3995 15.08839926 65980,6917.881,95.438,540.857,538.635,0.0
53022.0,STARLINK-4216,PAYLOAD,2023-09-15 04:24:47,15.08843579,0.0001335,53.2179,193.5863,99.6863,260.428,4.4507e-05,4.21e-06,0.0,0 STARLINK-4216,1 53022U 22076AN  23258.18388495  .00000421  00000-0  44507-4 0  9996,2 53022  53.2179 193.5863 0001335  99.6863 260.4280 15.08843579 66609,6917.869,95.437,540.658,538.811,0.0
53022.0,STARLINK-4216,PAYLOAD,2023-09-15 09:10:56,15.08854125,0.0001242,53.2173,192.6905,93.1014,267.012,0.00012456,1.696e-05,0.0,0 STARLINK-4216,1 53022U 22076AN  23258.38259482  .00001696  00000-0  12456-3 0  9993,2 53022  53.2173 192.6905 0001242  93.1014 267.0120 15.08854125 66632,6917.837,95.437,540.561,538.843,0.0
53022.0,STARLINK-4216,PAYLOAD,2023-09-15 18:43:16,15.08830348,0.0001132,53.218,190.9099,103.4078,256.704,9.5397e-05,1.23e-05,0.0,0 STARLINK-4216,1 53022U 22076AN  23258.78005214  .00001230  00000-0  95397-4 0  9999,2 53022  53.2180 190.9099 0001132 103.4078 256.7040 15.08830348 66691,6917.91,95.438,540.558,538.992,0.0
53022.0,STARLINK-4216,PAYLOAD,2023-09-16 04:15:34,15.0884039,0.0001293,53.2176,189.1238,109.5556,250.5576,0.00011442,1.534e-05,0.0,0 STARLINK-4216,1 53022U 22076AN  23259.17748679  .00001534  00000-0  11442-3 0  9997,2 53022  53.2176 189.1238 0001293 109.5556 250.5576 15.08840390 66758,6917.879,95.438,540.639,538.85,0.0
53022.0,STARLINK-4216,PAYLOAD,2023-09-17 04:06:22,15.08845022,0.0001184,53.2177,184.6613,90.5432,269.5696,6.5927e-05,7.62e-06,0.0,0 STARLINK-4216,1 53022U 22076AN  23260.17108911  .00000762  00000-0  65927-4 0  9998,2 53022  53.2177 184.6613 0001184  90.5432 269.5696 15.08845022 66432,6917.865,95.437,540.549,538.911,0.0
